{
    "links": {
        "self": "http://www.neowsapp.com/rest/v1/neo/54016315?api_key=iIulBulltgU6a56xZRHN4H3l9WmuAYTsLGpBGhQ2"
    },
    "id": "54016315",
    "neo_reference_id": "54016315",
    "name": "(2020 FE3)",
    "designation": "2020 FE3",
    "nasa_jpl_url": "http://ssd.jpl.nasa.gov/sbdb.cgi?sstr=54016315",
    "absolute_magnitude_h": 22.673,
    "estimated_diameter": {
        "kilometers": {
            "estimated_diameter_min": 0.0776166647,
            "estimated_diameter_max": 0.1735561385
        },
        "meters": {
            "estimated_diameter_min": 77.6166647111,
            "estimated_diameter_max": 173.5561384807
        },
        "miles": {
            "estimated_diameter_min": 0.0482287446,
            "estimated_diameter_max": 0.1078427513
        },
        "feet": {
            "estimated_diameter_min": 254.6478582506,
            "estimated_diameter_max": 569.4099213731
        }
    },
    "is_potentially_hazardous_asteroid": false,
    "close_approach_data": [
        {
            "close_approach_date": "2020-02-25",
            "close_approach_date_full": "2020-Feb-25 18:05",
            "epoch_date_close_approach": 1582653900000,
            "relative_velocity": {
                "kilometers_per_second": "10.9581133447",
                "kilometers_per_hour": "39449.2080409078",
                "miles_per_hour": "24512.2037407518"
            },
            "miss_distance": {
                "astronomical": "0.1766082646",
                "lunar": "68.7006149294",
                "kilometers": "26420220.208556402",
                "miles": "16416763.5821542676"
            },
            "orbiting_body": "Earth"
        }
    ],
    "orbital_data": {
        "orbit_id": "1",
        "orbit_determination_date": "2020-03-23 21:12:06",
        "first_observation_date": "2020-03-21",
        "last_observation_date": "2020-03-24",
        "data_arc_in_days": 3,
        "observations_used": 19,
        "orbit_uncertainty": "8",
        "minimum_orbit_intersection": ".124602",
        "jupiter_tisserand_invariant": "3.313",
        "epoch_osculation": "2458930.5",
        "eccentricity": ".5765958809870416",
        "semi_major_axis": "2.28591232709766",
        "inclination": "16.75206664992809",
        "ascending_node_longitude": "2.253094524130062",
        "orbital_period": "1262.373244666891",
        "perihelion_distance": ".9678646949956464",
        "perihelion_argument": "118.5112051715477",
        "aphelion_distance": "3.603959959199674",
        "perihelion_time": "2458870.985965313703",
        "mean_anomaly": "16.97204260117257",
        "mean_motion": ".2851771467122586",
        "equinox": "J2000",
        "orbit_class": {
            "orbit_class_type": "APO",
            "orbit_class_description": "Near-Earth asteroid orbits which cross the Earth’s orbit similar to that of 1862 Apollo",
            "orbit_class_range": "a (semi-major axis) > 1.0 AU; q (perihelion) < 1.017 AU"
        }
    },
    "is_sentry_object": false
}